{
  "type": "FeatureCollection",
  "features": [
    {
      "type": "Feature",
      "properties": {
        "norad_id": 38163,
        "name": "FENGYUN 1C DEB",
        "group": "fengyun-1c-debris",
        "lat": 57.31384248603326,
        "lon": 14.042000104863984,
        "alt_km": 922.0204434629004,
        "timestamp": "2025-12-17T23:38:07.143709+00:00",
        "meta_object_name": "FENGYUN 1C DEB",
        "meta_object_id": "1999-025ERL",
        "meta_epoch": "2025-12-17T07:58:56.132832",
        "meta_mean_motion": 14.05927102,
        "meta_eccentricity": 0.00761661,
        "meta_inclination": 99.1285,
        "meta_ra_of_asc_node": 27.8969,
        "meta_arg_of_pericenter": 229.5346,
        "meta_mean_anomaly": 129.9165,
        "meta_ephemeris_type": 0,
        "meta_classification_type": "U",
        "meta_norad_cat_id": 38163,
        "meta_element_set_no": 999,
        "meta_rev_at_epoch": 24606,
        "meta_bstar": 0.00076662024,
        "meta_mean_motion_dot": 1.242e-05,
        "meta_mean_motion_ddot": 0,
        "tle_line1": "1 38163U 99025ERL 25351.33259413  .00001242  00000+0  76662-3 0  9990",
        "tle_line2": "2 38163  99.1285  27.8969 0076166 229.5346 129.9165 14.05927102246067"
      },
      "geometry": {
        "type": "Point",
        "coordinates": [
          14.042000104863984,
          57.31384248603326
        ]
      }
    },
    {
      "type": "Feature",
      "properties": {
        "norad_id": 38166,
        "name": "FENGYUN 1C DEB",
        "group": "fengyun-1c-debris",
        "lat": 50.55234813075036,
        "lon": 84.0894009807612,
        "alt_km": 749.1388111566803,
        "timestamp": "2025-12-17T23:38:07.143718+00:00",
        "meta_object_name": "FENGYUN 1C DEB",
        "meta_object_id": "1999-025ERP",
        "meta_epoch": "2025-12-16T05:26:45.938976",
        "meta_mean_motion": 14.30993928,
        "meta_eccentricity": 0.00520425,
        "meta_inclination": 99.0778,
        "meta_ra_of_asc_node": 93.4587,
        "meta_arg_of_pericenter": 34.262,
        "meta_mean_anomaly": 326.1901,
        "meta_ephemeris_type": 0,
        "meta_classification_type": "U",
        "meta_norad_cat_id": 38166,
        "meta_element_set_no": 999,
        "meta_rev_at_epoch": 63822,
        "meta_bstar": 0.0018694892,
        "meta_mean_motion_dot": 4.947e-05,
        "meta_mean_motion_ddot": 0,
        "tle_line1": "1 38166U 99025ERP 25350.22692059  .00004947  00000+0  18695-2 0  9993",
        "tle_line2": "2 38166  99.0778  93.4587 0052042  34.2620 326.1901 14.30993928638223"
      },
      "geometry": {
        "type": "Point",
        "coordinates": [
          84.0894009807612,
          50.55234813075036
        ]
      }
    },
    {
      "type": "Feature",
      "properties": {
        "norad_id": 38169,
        "name": "FENGYUN 1C DEB",
        "group": "fengyun-1c-debris",
        "lat": -52.71751437377309,
        "lon": 134.75253204731717,
        "alt_km": 685.4576666667244,
        "timestamp": "2025-12-17T23:38:07.143729+00:00",
        "meta_object_name": "FENGYUN 1C DEB",
        "meta_object_id": "1999-025ERS",
        "meta_epoch": "2025-12-17T04:37:40.598400",
        "meta_mean_motion": 14.71570377,
        "meta_eccentricity": 0.00320132,
        "meta_inclination": 98.9779,
        "meta_ra_of_asc_node": 325.865,
        "meta_arg_of_pericenter": 54.7995,
        "meta_mean_anomaly": 305.6199,
        "meta_ephemeris_type": 0,
        "meta_classification_type": "U",
        "meta_norad_cat_id": 38169,
        "meta_element_set_no": 999,
        "meta_rev_at_epoch": 61334,
        "meta_bstar": 0.002130707,
        "meta_mean_motion_dot": 0.00013312,
        "meta_mean_motion_ddot": 0,
        "tle_line1": "1 38169U 99025ERS 25351.19283100  .00013312  00000+0  21307-2 0  9996",
        "tle_line2": "2 38169  98.9779 325.8650 0032013  54.7995 305.6199 14.71570377613347"
      },
      "geometry": {
        "type": "Point",
        "coordinates": [
          134.75253204731717,
          -52.71751437377309
        ]
      }
    },
    {
      "type": "Feature",
      "properties": {
        "norad_id": 38173,
        "name": "FENGYUN 1C DEB",
        "group": "fengyun-1c-debris",
        "lat": -77.39203592215796,
        "lon": 27.323253491317622,
        "alt_km": 886.9521245493934,
        "timestamp": "2025-12-17T23:38:07.143740+00:00",
        "meta_object_name": "FENGYUN 1C DEB",
        "meta_object_id": "1999-025ERW",
        "meta_epoch": "2025-12-16T11:20:48.017472",
        "meta_mean_motion": 14.37192423,
        "meta_eccentricity": 0.01631615,
        "meta_inclination": 99.0007,
        "meta_ra_of_asc_node": 250.8645,
        "meta_arg_of_pericenter": 101.6732,
        "meta_mean_anomaly": 260.2814,
        "meta_ephemeris_type": 0,
        "meta_classification_type": "U",
        "meta_norad_cat_id": 38173,
        "meta_element_set_no": 999,
        "meta_rev_at_epoch": 60697,
        "meta_bstar": 0.00064310917,
        "meta_mean_motion_dot": 2.179e-05,
        "meta_mean_motion_ddot": 0,
        "tle_line1": "1 38173U 99025ERW 25350.47277798  .00002179  00000+0  64311-3 0  9999",
        "tle_line2": "2 38173  99.0007 250.8645 0163161 101.6732 260.2814 14.37192423606974"
      },
      "geometry": {
        "type": "Point",
        "coordinates": [
          27.323253491317622,
          -77.39203592215796
        ]
      }
    },
    {
      "type": "Feature",
      "properties": {
        "norad_id": 38493,
        "name": "FENGYUN 1C DEB",
        "group": "fengyun-1c-debris",
        "lat": 52.01799891736915,
        "lon": 142.85977613822888,
        "alt_km": 1089.2984672238017,
        "timestamp": "2025-12-17T23:38:07.143750+00:00",
        "meta_object_name": "FENGYUN 1C DEB",
        "meta_object_id": "1999-025ESC",
        "meta_epoch": "2025-12-13T14:58:26.647392",
        "meta_mean_motion": 13.62319496,
        "meta_eccentricity": 0.04264901,
        "meta_inclination": 99.0796,
        "meta_ra_of_asc_node": 306.9671,
        "meta_arg_of_pericenter": 242.9047,
        "meta_mean_anomaly": 112.7989,
        "meta_ephemeris_type": 0,
        "meta_classification_type": "U",
        "meta_norad_cat_id": 38493,
        "meta_element_set_no": 999,
        "meta_rev_at_epoch": 56510,
        "meta_bstar": 0.00047974908,
        "meta_mean_motion_dot": 6.42e-06,
        "meta_mean_motion_ddot": 0,
        "tle_line1": "1 38493U 99025ESC 25347.62391953  .00000642  00000+0  47975-3 0  9997",
        "tle_line2": "2 38493  99.0796 306.9671 0426490 242.9047 112.7989 13.62319496565102"
      },
      "geometry": {
        "type": "Point",
        "coordinates": [
          142.85977613822888,
          52.01799891736915
        ]
      }
    },
    {
      "type": "Feature",
      "properties": {
        "norad_id": 38494,
        "name": "FENGYUN 1C DEB",
        "group": "fengyun-1c-debris",
        "lat": 31.953927459056942,
        "lon": 127.10138527972197,
        "alt_km": 1139.674306837579,
        "timestamp": "2025-12-17T23:38:07.143760+00:00",
        "meta_object_name": "FENGYUN 1C DEB",
        "meta_object_id": "1999-025ESD",
        "meta_epoch": "2025-12-15T02:20:55.377888",
        "meta_mean_motion": 14.00279097,
        "meta_eccentricity": 0.03866916,
        "meta_inclination": 98.4312,
        "meta_ra_of_asc_node": 299.1227,
        "meta_arg_of_pericenter": 2.3579,
        "meta_mean_anomaly": 357.9298,
        "meta_ephemeris_type": 0,
        "meta_classification_type": "U",
        "meta_norad_cat_id": 38494,
        "meta_element_set_no": 999,
        "meta_rev_at_epoch": 7187,
        "meta_bstar": 0.0033612708,
        "meta_mean_motion_dot": 9.5e-05,
        "meta_mean_motion_ddot": 0,
        "tle_line1": "1 38494U 99025ESD 25349.09786317  .00009500  00000+0  33613-2 0  9998",
        "tle_line2": "2 38494  98.4312 299.1227 0386691   2.3579 357.9298 14.00279097 71873"
      },
      "geometry": {
        "type": "Point",
        "coordinates": [
          127.10138527972197,
          31.953927459056942
        ]
      }
    },
    {
      "type": "Feature",
      "properties": {
        "norad_id": 38495,
        "name": "FENGYUN 1C DEB",
        "group": "fengyun-1c-debris",
        "lat": 41.279970701605585,
        "lon": -0.07547169276117544,
        "alt_km": 971.2897042470395,
        "timestamp": "2025-12-17T23:38:07.143771+00:00",
        "meta_object_name": "FENGYUN 1C DEB",
        "meta_object_id": "1999-025ESE",
        "meta_epoch": "2025-12-02T06:20:41.771904",
        "meta_mean_motion": 13.69106573,
        "meta_eccentricity": 0.0252581,
        "meta_inclination": 99.1709,
        "meta_ra_of_asc_node": 353.1036,
        "meta_arg_of_pericenter": 165.9119,
        "meta_mean_anomaly": 194.9245,
        "meta_ephemeris_type": 0,
        "meta_classification_type": "U",
        "meta_norad_cat_id": 38495,
        "meta_element_set_no": 999,
        "meta_rev_at_epoch": 60969,
        "meta_bstar": 0.0025866,
        "meta_mean_motion_dot": 2.759e-05,
        "meta_mean_motion_ddot": 0,
        "tle_line1": "1 38495U 99025ESE 25336.26437236  .00002759  00000+0  25866-2 0  9997",
        "tle_line2": "2 38495  99.1709 353.1036 0252581 165.9119 194.9245 13.69106573609697"
      },
      "geometry": {
        "type": "Point",
        "coordinates": [
          -0.07547169276117544,
          41.279970701605585
        ]
      }
    }
  ]
}